<?xml version="1.0" encoding="UTF-8"?>
<osm version="0.6" generator="AeroSentinel OSM Exporter 1.0">
  <note>The data included in this document is generated for AeroSentinel AWS weather monitoring.</note>
  <meta osm_base="2026-09-24T08:25:35Z"/>
  <bounds minlat="43.0400000" minlon="-18.7600000" maxlat="58.6300000" maxlon="18.5900000"/>
  <node id="1001" lat="52.5200" lon="13.4100" version="1">
    <tag k="amenity" v="weather_station"/>
    <tag k="name" v="Berlin AWS DWD"/>
    <tag k="operator" v="Deutscher Wetterdienst"/>
    <tag k="elevation" v="34"/>
    <tag k="ref" v="EU001"/>
  </node>
  <node id="1002" lat="51.4700" lon="-0.4500" version="1">
    <tag k="amenity" v="weather_station"/>
    <tag k="name" v="London Heathrow Met Office AWS"/>
    <tag k="operator" v="UK Met Office"/>
    <tag k="elevation" v="25"/>
    <tag k="ref" v="EU002"/>
  </node>
  <node id="1003" lat="48.8200" lon="2.3400" version="1">
    <tag k="amenity" v="weather_station"/>
    <tag k="name" v="Paris Montsouris Météo-France"/>
    <tag k="operator" v="Météo-France"/>
    <tag k="elevation" v="75"/>
    <tag k="ref" v="EU003"/>
  </node>
  <node id="1004" lat="52.3100" lon="4.7600" version="1">
    <tag k="amenity" v="weather_station"/>
    <tag k="name" v="Amsterdam Schiphol KNMI"/>
    <tag k="operator" v="KNMI"/>
    <tag k="elevation" v="-3"/>
    <tag k="ref" v="EU004"/>
  </node>
  <node id="1005" lat="50.0300" lon="8.5700" version="1">
    <tag k="amenity" v="weather_station"/>
    <tag k="name" v="Frankfurt Airport AWS"/>
    <tag k="operator" v="Deutscher Wetterdienst"/>
    <tag k="elevation" v="111"/>
    <tag k="ref" v="EU005"/>
  </node>
  <node id="1006" lat="53.4200" lon="-6.2400" version="1">
    <tag k="amenity" v="weather_station"/>
    <tag k="name" v="Dublin Airport Met Éireann"/>
    <tag k="operator" v="Met Éireann"/>
    <tag k="elevation" v="71"/>
    <tag k="ref" v="EU006"/>
  </node>
</osm>
